[{"OBJECT_NAME":"OPS 7218 (TRANSIT 16)","OBJECT_ID":"1967-048A","EPOCH":"2026-03-07T05:03:21.790368","MEAN_MOTION":13.50743502,"ECCENTRICITY":0.0018493,"INCLINATION":89.6811,"RA_OF_ASC_NODE":351.2471,"ARG_OF_PERICENTER":229.1415,"MEAN_ANOMALY":245.3009,"EPHEMERIS_TYPE":0,"CLASSIFICATION_TYPE":"U","NORAD_CAT_ID":2807,"ELEMENT_SET_NO":999,"REV_AT_EPOCH":89416,"BSTAR":0.00023906,"MEAN_MOTION_DOT":1.64e-6,"MEAN_MOTION_DDOT":0},{"OBJECT_NAME":"OPS 4947 (TRANSIT 17)","OBJECT_ID":"1967-092A","EPOCH":"2026-03-06T22:38:49.046208","MEAN_MOTION":13.5347725,"ECCENTRICITY":0.0047653,"INCLINATION":89.2563,"RA_OF_ASC_NODE":18.0219,"ARG_OF_PERICENTER":353.9533,"MEAN_ANOMALY":74.5486,"EPHEMERIS_TYPE":0,"CLASSIFICATION_TYPE":"U","NORAD_CAT_ID":2965,"ELEMENT_SET_NO":999,"REV_AT_EPOCH":88236,"BSTAR":0.00025461,"MEAN_MOTION_DOT":1.83e-6,"MEAN_MOTION_DDOT":0},{"OBJECT_NAME":"OPS 7034 (TRANSIT 18)","OBJECT_ID":"1968-012A","EPOCH":"2026-03-07T02:48:15.331104","MEAN_MOTION":13.5158867,"ECCENTRICITY":0.0072085,"INCLINATION":90.0212,"RA_OF_ASC_NODE":273.864,"ARG_OF_PERICENTER":286.6407,"MEAN_ANOMALY":201.6799,"EPHEMERIS_TYPE":0,"CLASSIFICATION_TYPE":"U","NORAD_CAT_ID":3133,"ELEMENT_SET_NO":999,"REV_AT_EPOCH":58058,"BSTAR":0.00018,"MEAN_MOTION_DOT":1.28e-6,"MEAN_MOTION_DDOT":0},{"OBJECT_NAME":"NNSS 19 (TRANSIT 19)","OBJECT_ID":"1970-067A","EPOCH":"2026-03-06T23:08:34.039968","MEAN_MOTION":13.51337642,"ECCENTRICITY":0.0173078,"INCLINATION":90.0054,"RA_OF_ASC_NODE":234.5793,"ARG_OF_PERICENTER":49.3806,"MEAN_ANOMALY":312.2254,"EPHEMERIS_TYPE":0,"CLASSIFICATION_TYPE":"U","NORAD_CAT_ID":4507,"ELEMENT_SET_NO":999,"REV_AT_EPOCH":73359,"BSTAR":0.00018481,"MEAN_MOTION_DOT":1.42e-6,"MEAN_MOTION_DDOT":0},{"OBJECT_NAME":"NNSS 20 (TRANSIT 20)","OBJECT_ID":"1973-081A","EPOCH":"2026-03-07T00:39:13.874688","MEAN_MOTION":13.71473985,"ECCENTRICITY":0.0154449,"INCLINATION":89.8514,"RA_OF_ASC_NODE":253.7713,"ARG_OF_PERICENTER":184.7899,"MEAN_ANOMALY":175.1796,"EPHEMERIS_TYPE":0,"CLASSIFICATION_TYPE":"U","NORAD_CAT_ID":6909,"ELEMENT_SET_NO":999,"REV_AT_EPOCH":81516,"BSTAR":0.00022498,"MEAN_MOTION_DOT":2.31e-6,"MEAN_MOTION_DDOT":0},{"OBJECT_NAME":"TRANSAT","OBJECT_ID":"1977-106A","EPOCH":"2026-03-07T00:55:13.930752","MEAN_MOTION":13.48957541,"ECCENTRICITY":0.0024074,"INCLINATION":89.6397,"RA_OF_ASC_NODE":75.5713,"ARG_OF_PERICENTER":313.7491,"MEAN_ANOMALY":53.4238,"EPHEMERIS_TYPE":0,"CLASSIFICATION_TYPE":"U","NORAD_CAT_ID":10457,"ELEMENT_SET_NO":999,"REV_AT_EPOCH":37880,"BSTAR":0.00010069,"MEAN_MOTION_DOT":7.3e-7,"MEAN_MOTION_DDOT":0},{"OBJECT_NAME":"NOVA 1","OBJECT_ID":"1981-044A","EPOCH":"2026-03-07T02:47:43.897920","MEAN_MOTION":13.23287192,"ECCENTRICITY":0.0012824,"INCLINATION":89.8424,"RA_OF_ASC_NODE":90.155,"ARG_OF_PERICENTER":226.2536,"MEAN_ANOMALY":195.5037,"EPHEMERIS_TYPE":0,"CLASSIFICATION_TYPE":"U","NORAD_CAT_ID":12458,"ELEMENT_SET_NO":999,"REV_AT_EPOCH":16302,"BSTAR":9.5013e-5,"MEAN_MOTION_DOT":4.9e-7,"MEAN_MOTION_DDOT":0},{"OBJECT_NAME":"NOVA 3","OBJECT_ID":"1984-110A","EPOCH":"2026-03-07T01:59:06.835200","MEAN_MOTION":13.23056498,"ECCENTRICITY":0.0033444,"INCLINATION":90.1128,"RA_OF_ASC_NODE":81.4875,"ARG_OF_PERICENTER":96.6272,"MEAN_ANOMALY":326.5065,"EPHEMERIS_TYPE":0,"CLASSIFICATION_TYPE":"U","NORAD_CAT_ID":15362,"ELEMENT_SET_NO":999,"REV_AT_EPOCH":99814,"BSTAR":0.00019556,"MEAN_MOTION_DOT":9.1e-7,"MEAN_MOTION_DDOT":0},{"OBJECT_NAME":"OSCAR 30","OBJECT_ID":"1985-066A","EPOCH":"2026-03-07T03:25:21.224928","MEAN_MOTION":13.36094543,"ECCENTRICITY":0.0167029,"INCLINATION":90.1549,"RA_OF_ASC_NODE":101.194,"ARG_OF_PERICENTER":204.9616,"MEAN_ANOMALY":219.5327,"EPHEMERIS_TYPE":0,"CLASSIFICATION_TYPE":"U","NORAD_CAT_ID":15935,"ELEMENT_SET_NO":999,"REV_AT_EPOCH":97580,"BSTAR":0.00014312,"MEAN_MOTION_DOT":8.8e-7,"MEAN_MOTION_DDOT":0},{"OBJECT_NAME":"OSCAR 24","OBJECT_ID":"1985-066B","EPOCH":"2026-03-07T03:17:03.166944","MEAN_MOTION":13.35952326,"ECCENTRICITY":0.0167855,"INCLINATION":90.1686,"RA_OF_ASC_NODE":93.7607,"ARG_OF_PERICENTER":211.5492,"MEAN_ANOMALY":217.3574,"EPHEMERIS_TYPE":0,"CLASSIFICATION_TYPE":"U","NORAD_CAT_ID":15936,"ELEMENT_SET_NO":999,"REV_AT_EPOCH":97770,"BSTAR":0.00013874,"MEAN_MOTION_DOT":8.5e-7,"MEAN_MOTION_DDOT":0},{"OBJECT_NAME":"POLAR BEAR","OBJECT_ID":"1986-088A","EPOCH":"2026-03-06T08:35:22.617888","MEAN_MOTION":13.75269509,"ECCENTRICITY":0.00380161,"INCLINATION":89.6252,"RA_OF_ASC_NODE":180.4496,"ARG_OF_PERICENTER":226.0603,"MEAN_ANOMALY":193.7296,"EPHEMERIS_TYPE":0,"CLASSIFICATION_TYPE":"U","NORAD_CAT_ID":17070,"ELEMENT_SET_NO":999,"REV_AT_EPOCH":97128,"BSTAR":0.00013678862,"MEAN_MOTION_DOT":1.43e-6,"MEAN_MOTION_DDOT":0},{"OBJECT_NAME":"OSCAR 27","OBJECT_ID":"1987-080A","EPOCH":"2026-03-07T01:28:28.212960","MEAN_MOTION":13.44924063,"ECCENTRICITY":0.0103211,"INCLINATION":90.3646,"RA_OF_ASC_NODE":82.3851,"ARG_OF_PERICENTER":344.1855,"MEAN_ANOMALY":15.6076,"EPHEMERIS_TYPE":0,"CLASSIFICATION_TYPE":"U","NORAD_CAT_ID":18361,"ELEMENT_SET_NO":999,"REV_AT_EPOCH":88690,"BSTAR":0.00014367,"MEAN_MOTION_DOT":9.5e-7,"MEAN_MOTION_DDOT":0},{"OBJECT_NAME":"OSCAR 29","OBJECT_ID":"1987-080B","EPOCH":"2026-03-07T02:27:40.320864","MEAN_MOTION":13.44464143,"ECCENTRICITY":0.0105583,"INCLINATION":90.3657,"RA_OF_ASC_NODE":82.8522,"ARG_OF_PERICENTER":7.3488,"MEAN_ANOMALY":64.3468,"EPHEMERIS_TYPE":0,"CLASSIFICATION_TYPE":"U","NORAD_CAT_ID":18362,"ELEMENT_SET_NO":999,"REV_AT_EPOCH":88643,"BSTAR":0.00012086,"MEAN_MOTION_DOT":8.1e-7,"MEAN_MOTION_DDOT":0},{"OBJECT_NAME":"OSCAR 23","OBJECT_ID":"1988-033A","EPOCH":"2026-03-06T22:10:50.138688","MEAN_MOTION":13.2780322,"ECCENTRICITY":0.0187996,"INCLINATION":90.3291,"RA_OF_ASC_NODE":19.016,"ARG_OF_PERICENTER":306.7224,"MEAN_ANOMALY":114.8046,"EPHEMERIS_TYPE":0,"CLASSIFICATION_TYPE":"U","NORAD_CAT_ID":19070,"ELEMENT_SET_NO":999,"REV_AT_EPOCH":83370,"BSTAR":0.00018649,"MEAN_MOTION_DOT":9.9e-7,"MEAN_MOTION_DDOT":0},{"OBJECT_NAME":"OSCAR 32","OBJECT_ID":"1988-033B","EPOCH":"2026-03-07T02:32:13.349184","MEAN_MOTION":13.27967901,"ECCENTRICITY":0.0186126,"INCLINATION":90.3295,"RA_OF_ASC_NODE":19.1583,"ARG_OF_PERICENTER":292.9058,"MEAN_ANOMALY":76.4471,"EPHEMERIS_TYPE":0,"CLASSIFICATION_TYPE":"U","NORAD_CAT_ID":19071,"ELEMENT_SET_NO":999,"REV_AT_EPOCH":83385,"BSTAR":0.00016146,"MEAN_MOTION_DOT":8.6e-7,"MEAN_MOTION_DDOT":0},{"OBJECT_NAME":"NOVA 2","OBJECT_ID":"1988-052A","EPOCH":"2026-03-07T02:14:17.345184","MEAN_MOTION":13.22947405,"ECCENTRICITY":0.003166,"INCLINATION":89.9783,"RA_OF_ASC_NODE":78.1277,"ARG_OF_PERICENTER":138.4721,"MEAN_ANOMALY":286.5491,"EPHEMERIS_TYPE":0,"CLASSIFICATION_TYPE":"U","NORAD_CAT_ID":19223,"ELEMENT_SET_NO":999,"REV_AT_EPOCH":82063,"BSTAR":0.00012852,"MEAN_MOTION_DOT":6.3e-7,"MEAN_MOTION_DDOT":0},{"OBJECT_NAME":"OSCAR 25","OBJECT_ID":"1988-074A","EPOCH":"2026-03-07T02:20:19.128768","MEAN_MOTION":13.42641216,"ECCENTRICITY":0.0096571,"INCLINATION":90.0418,"RA_OF_ASC_NODE":20.5306,"ARG_OF_PERICENTER":6.8641,"MEAN_ANOMALY":5.7908,"EPHEMERIS_TYPE":0,"CLASSIFICATION_TYPE":"U","NORAD_CAT_ID":19419,"ELEMENT_SET_NO":999,"REV_AT_EPOCH":83772,"BSTAR":0.00021929,"MEAN_MOTION_DOT":1.37e-6,"MEAN_MOTION_DDOT":0}]
