OPS 7218 (TRANSIT 16)   
1 02807U 67048A   26066.21066887  .00000164  00000+0  23906-3 0  9993
2 02807  89.6811 351.2471 0018493 229.1415 245.3009 13.50743502894165
OPS 4947 (TRANSIT 17)   
1 02965U 67092A   26065.94362322  .00000183  00000+0  25461-3 0  9998
2 02965  89.2563  18.0219 0047653 353.9533  74.5486 13.53477250882362
OPS 7034 (TRANSIT 18)   
1 03133U 68012A   26066.11684411  .00000128  00000+0  18000-3 0  9995
2 03133  90.0212 273.8640 0072085 286.6407 201.6799 13.51588670580585
NNSS 19 (TRANSIT 19)    
1 04507U 70067A   26065.96428287  .00000142  00000+0  18481-3 0  9992
2 04507  90.0054 234.5793 0173078  49.3806 312.2254 13.51337642733596
NNSS 20 (TRANSIT 20)    
1 06909U 73081A   26066.02724392  .00000231  00000+0  22498-3 0  9995
2 06909  89.8514 253.7713 0154449 184.7899 175.1796 13.71473985815167
TRANSAT                 
1 10457U 77106A   26066.03835568  .00000073  00000+0  10069-3 0  9994
2 10457  89.6397  75.5713 0024074 313.7491  53.4238 13.48957541378802
NOVA 1                  
1 12458U 81044A   26066.11648030  .00000049  00000+0  95013-4 0  9994
2 12458  89.8424  90.1550 0012824 226.2536 195.5037 13.23287192163020
NOVA 3                  
1 15362U 84110A   26066.08271800  .00000091  00000+0  19556-3 0  9995
2 15362  90.1128  81.4875 0033444  96.6272 326.5065 13.23056498998142
OSCAR 30                
1 15935U 85066A   26066.14260677  .00000088  00000+0  14312-3 0  9990
2 15935  90.1549 101.1940 0167029 204.9616 219.5327 13.36094543975808
OSCAR 24                
1 15936U 85066B   26066.13684221  .00000085  00000+0  13874-3 0  9994
2 15936  90.1686  93.7607 0167855 211.5492 217.3574 13.35952326977702
POLAR BEAR              
1 17070U 86088A   26065.35790067  .00000143  00000+0  13679-3 0  9997
2 17070  89.6252 180.4496 0038016 226.0603 193.7296 13.75269509971289
OSCAR 27                
1 18361U 87080A   26066.06143765  .00000095  00000+0  14367-3 0  9991
2 18361  90.3646  82.3851 0103211 344.1855  15.6076 13.44924063886906
OSCAR 29                
1 18362U 87080B   26066.10255001  .00000081  00000+0  12086-3 0  9995
2 18362  90.3657  82.8522 0105583   7.3488  64.3468 13.44464143886435
OSCAR 23                
1 19070U 88033A   26065.92419142  .00000099  00000+0  18649-3 0  9998
2 19070  90.3291  19.0160 0187996 306.7224 114.8046 13.27803220833707
OSCAR 32                
1 19071U 88033B   26066.10571006  .00000086  00000+0  16146-3 0  9994
2 19071  90.3295  19.1583 0186126 292.9058  76.4471 13.27967901833855
NOVA 2                  
1 19223U 88052A   26066.09325631  .00000063  00000+0  12852-3 0  9998
2 19223  89.9783  78.1277 0031660 138.4721 286.5491 13.22947405820638
OSCAR 25                
1 19419U 88074A   26066.09744362  .00000137  00000+0  21929-3 0  9992
2 19419  90.0418  20.5306 0096571   6.8641   5.7908 13.42641216837723
